[
    {
        "Altitude(m)": 556580.1197899414,
        "Argument of Periapsis(deg)": 0.026491964442854003,
        "Eccentricity": 0.0,
        "Inclination(deg)": 53.0,
        "Latitude(deg)": -12.026378527670325,
        "Longitude(deg)": -88.99715166417838,
        "Mean Anomaly(deg)": -165.08812852968967,
        "RAAN(deg)": 184.96057347411204,
        "Satellite Name": "Starlink Shell 1 823",
        "Satellite Number": 823,
        "Semi-Major Axis(m)": 6931778.249405717,
        "Time(s)": 760
    },
    {
        "Altitude(m)": 556708.2970048409,
        "Argument of Periapsis(deg)": 0.02684054292236524,
        "Eccentricity": 0.0,
        "Inclination(deg)": 53.0,
        "Latitude(deg)": -12.523058165646493,
        "Longitude(deg)": -88.64431169542799,
        "Mean Anomaly(deg)": -164.46129732613298,
        "RAAN(deg)": 184.96005470403458,
        "Satellite Name": "Starlink Shell 1 823",
        "Satellite Number": 823,
        "Semi-Major Axis(m)": 6931778.249405717,
        "Time(s)": 770
    },
    {
        "Altitude(m)": 556838.6621707916,
        "Argument of Periapsis(deg)": 0.027189121401876473,
        "Eccentricity": 0.0,
        "Inclination(deg)": 53.0,
        "Latitude(deg)": -13.019126480087658,
        "Longitude(deg)": -88.28997394717982,
        "Mean Anomaly(deg)": -163.83446612257623,
        "RAAN(deg)": 184.9595359339571,
        "Satellite Name": "Starlink Shell 1 823",
        "Satellite Number": 823,
        "Semi-Major Axis(m)": 6931778.249405717,
        "Time(s)": 780
    },
    {
        "Altitude(m)": 556971.1750014554,
        "Argument of Periapsis(deg)": 0.02753769988138771,
        "Eccentricity": 0.0,
        "Inclination(deg)": 53.0,
        "Latitude(deg)": -13.514556693513358,
        "Longitude(deg)": -87.93407224978128,
        "Mean Anomaly(deg)": -163.20763491901957,
        "RAAN(deg)": 184.95901716387962,
        "Satellite Name": "Starlink Shell 1 823",
        "Satellite Number": 823,
        "Semi-Major Axis(m)": 6931778.249405717,
        "Time(s)": 790
    },
    {
        "Altitude(m)": 557105.7941077771,
        "Argument of Periapsis(deg)": 0.02788627836089895,
        "Eccentricity": 0.0,
        "Inclination(deg)": 53.0,
        "Latitude(deg)": -14.009321696405912,
        "Longitude(deg)": -87.57654027269918,
        "Mean Anomaly(deg)": -162.58080371546282,
        "RAAN(deg)": 184.9584983938022,
        "Satellite Name": "Starlink Shell 1 823",
        "Satellite Number": 823,
        "Semi-Major Axis(m)": 6931778.249405717,
        "Time(s)": 800
    },
    {
        "Altitude(m)": 557242.4770158291,
        "Argument of Periapsis(deg)": 0.02823485684041019,
        "Eccentricity": 0.0,
        "Inclination(deg)": 53.0,
        "Latitude(deg)": -14.503394031559829,
        "Longitude(deg)": -87.21731099353863,
        "Mean Anomaly(deg)": -161.95397251190607,
        "RAAN(deg)": 184.95797962372473,
        "Satellite Name": "Starlink Shell 1 823",
        "Satellite Number": 823,
        "Semi-Major Axis(m)": 6931778.249405717,
        "Time(s)": 810
    },
    {
        "Altitude(m)": 557381.1801852311,
        "Argument of Periapsis(deg)": 0.028583435319921423,
        "Eccentricity": 0.0,
        "Inclination(deg)": 53.0,
        "Latitude(deg)": -14.99674587811736,
        "Longitude(deg)": -86.85631616704762,
        "Mean Anomaly(deg)": -161.32714130834938,
        "RAAN(deg)": 184.95746085364723,
        "Satellite Name": "Starlink Shell 1 823",
        "Satellite Number": 823,
        "Semi-Major Axis(m)": 6931778.249405717,
        "Time(s)": 820
    },
    {
        "Altitude(m)": 557521.8590280763,
        "Argument of Periapsis(deg)": 0.028932013799432665,
        "Eccentricity": 0.0,
        "Inclination(deg)": 53.0,
        "Latitude(deg)": -15.489349035275927,
        "Longitude(deg)": -86.49348730699714,
        "Mean Anomaly(deg)": -160.70031010479264,
        "RAAN(deg)": 184.95694208356977,
        "Satellite Name": "Starlink Shell 1 823",
        "Satellite Number": 823,
        "Semi-Major Axis(m)": 6931778.249405717,
        "Time(s)": 830
    },
    {
        "Altitude(m)": 557664.4679283855,
        "Argument of Periapsis(deg)": 0.029280592278943897,
        "Eccentricity": 0.0,
        "Inclination(deg)": 53.0,
        "Latitude(deg)": -15.981174905657044,
        "Longitude(deg)": -86.12875515520949,
        "Mean Anomaly(deg)": -160.07347890123597,
        "RAAN(deg)": 184.95642331349228,
        "Satellite Name": "Starlink Shell 1 823",
        "Satellite Number": 823,
        "Semi-Major Axis(m)": 6931778.249405717,
        "Time(s)": 840
    },
    {
        "Altitude(m)": 557808.9602620626,
        "Argument of Periapsis(deg)": 0.029629170758455132,
        "Eccentricity": 0.0,
        "Inclination(deg)": 53.0,
        "Latitude(deg)": -16.472194478323352,
        "Longitude(deg)": -85.7620491506306,
        "Mean Anomaly(deg)": -159.4466476976792,
        "RAAN(deg)": 184.95590454341482,
        "Satellite Name": "Starlink Shell 1 823",
        "Satellite Number": 823,
        "Semi-Major Axis(m)": 6931778.249405717,
        "Time(s)": 850
    },
    {
        "Altitude(m)": 557955.2884173039,
        "Argument of Periapsis(deg)": 0.02997774923796637,
        "Eccentricity": 0.0,
        "Inclination(deg)": 53.0,
        "Latitude(deg)": -16.962378311430847,
        "Longitude(deg)": -85.39329857944331,
        "Mean Anomaly(deg)": -158.81981649412253,
        "RAAN(deg)": 184.95538577333733,
        "Satellite Name": "Starlink Shell 1 823",
        "Satellite Number": 823,
        "Semi-Major Axis(m)": 6931778.249405717,
        "Time(s)": 860
    },
    {
        "Altitude(m)": 558103.4038155695,
        "Argument of Periapsis(deg)": 0.030326327717477602,
        "Eccentricity": 0.0,
        "Inclination(deg)": 53.0,
        "Latitude(deg)": -17.4516965145069,
        "Longitude(deg)": -85.02243120382013,
        "Mean Anomaly(deg)": -158.1929852905658,
        "RAAN(deg)": 184.95486700325986,
        "Satellite Name": "Starlink Shell 1 823",
        "Satellite Number": 823,
        "Semi-Major Axis(m)": 6931778.249405717,
        "Time(s)": 870
    },
    {
        "Altitude(m)": 558253.2569329443,
        "Argument of Periapsis(deg)": 0.030674906196988847,
        "Eccentricity": 0.0,
        "Inclination(deg)": 53.0,
        "Latitude(deg)": -17.940118730337876,
        "Longitude(deg)": -84.64937441226456,
        "Mean Anomaly(deg)": -157.56615408700912,
        "RAAN(deg)": 184.95434823318237,
        "Satellite Name": "Starlink Shell 1 823",
        "Satellite Number": 823,
        "Semi-Major Axis(m)": 6931778.249405717,
        "Time(s)": 880
    },
    {
        "Altitude(m)": 558404.7973220088,
        "Argument of Periapsis(deg)": 0.031023484676500086,
        "Eccentricity": 0.0,
        "Inclination(deg)": 53.0,
        "Latitude(deg)": -18.427614116459065,
        "Longitude(deg)": -84.274054689143,
        "Mean Anomaly(deg)": -156.93932288345238,
        "RAAN(deg)": 184.9538294631049,
        "Satellite Name": "Starlink Shell 1 823",
        "Satellite Number": 823,
        "Semi-Major Axis(m)": 6931778.249405717,
        "Time(s)": 890
    },
    {
        "Altitude(m)": 558557.973634127,
        "Argument of Periapsis(deg)": 0.03137206315601132,
        "Eccentricity": 0.0,
        "Inclination(deg)": 53.0,
        "Latitude(deg)": -18.91415132623139,
        "Longitude(deg)": -83.89639708442262,
        "Mean Anomaly(deg)": -156.31249167989563,
        "RAAN(deg)": 184.95331069302745,
        "Satellite Name": "Starlink Shell 1 823",
        "Satellite Number": 823,
        "Semi-Major Axis(m)": 6931778.249405717,
        "Time(s)": 900
    },
    {
        "Altitude(m)": 558712.7336422186,
        "Argument of Periapsis(deg)": 0.03172064163552255,
        "Eccentricity": 0.0,
        "Inclination(deg)": 53.0,
        "Latitude(deg)": -19.3996984894962,
        "Longitude(deg)": -83.51632619652885,
        "Mean Anomaly(deg)": -155.6856604763389,
        "RAAN(deg)": 184.95279192294996,
        "Satellite Name": "Starlink Shell 1 823",
        "Satellite Number": 823,
        "Semi-Major Axis(m)": 6931778.249405717,
        "Time(s)": 910
    },
    {
        "Altitude(m)": 558869.0242638907,
        "Argument of Periapsis(deg)": 0.0320692201150338,
        "Eccentricity": 0.0,
        "Inclination(deg)": 53.0,
        "Latitude(deg)": -19.884223192795634,
        "Longitude(deg)": -83.13376564262353,
        "Mean Anomaly(deg)": -155.05882927278222,
        "RAAN(deg)": 184.95227315287252,
        "Satellite Name": "Starlink Shell 1 823",
        "Satellite Number": 823,
        "Semi-Major Axis(m)": 6931778.249405717,
        "Time(s)": 920
    },
    {
        "Altitude(m)": 559026.7915850282,
        "Argument of Periapsis(deg)": 0.032417798594545036,
        "Eccentricity": 0.0,
        "Inclination(deg)": 53.0,
        "Latitude(deg)": -20.367692459147914,
        "Longitude(deg)": -82.7486375292305,
        "Mean Anomaly(deg)": -154.43199806922556,
        "RAAN(deg)": 184.95175438279506,
        "Satellite Name": "Starlink Shell 1 823",
        "Satellite Number": 823,
        "Semi-Major Axis(m)": 6931778.249405717,
        "Time(s)": 930
    },
    {
        "Altitude(m)": 559185.9808837796,
        "Argument of Periapsis(deg)": 0.03276637707405627,
        "Eccentricity": 0.0,
        "Inclination(deg)": 53.0,
        "Latitude(deg)": -20.850072727368012,
        "Longitude(deg)": -82.3608634361393,
        "Mean Anomaly(deg)": -153.80516686566875,
        "RAAN(deg)": 184.95123561271757,
        "Satellite Name": "Starlink Shell 1 823",
        "Satellite Number": 823,
        "Semi-Major Axis(m)": 6931778.249405717,
        "Time(s)": 940
    }
]